0 DMSP 5D-3 F18 DEB
1 36099U 09057E   13283.17000887  .00001775  00000-0  91031-3 0   792
2 36099 098.8406 329.7256 0011780 126.0580 265.9655 14.16655604200230
0 DMSP 5D-3 F18 DEB
1 36099U 09057E   13286.14258572  .00001579  00000-0  81223-3 0   815
2 36099 098.8406 332.6790 0011479 118.9462 304.6426 14.16664343200653
0 DMSP 5D-3 F18 DEB
1 36099U 09057E   13287.19759255  .00001793  00000-0  91910-3 0   828
2 36099 098.8403 333.7273 0011387 116.2847 284.8243 14.16666767200809
0 DMSP 5D-3 F18 DEB
1 36099U 09057E   13288.34485955  .00002364  00000-0  12046-2 0   837
2 36099 098.8400 334.8671 0011296 113.3314 015.5749 14.16673128200973
0 DMSP 5D-3 F18 DEB
1 36099U 09057E   13289.47171233  .00001793  00000-0  91914-3 0   841
2 36099 098.8399 335.9867 0011165 110.4884 002.1770 14.16678763201128
0 DMSP 5D-3 F18 DEB
1 36099U 09057E   13290.73602750  .00001821  00000-0  93327-3 0   858
2 36099 098.8398 337.2427 0011017 107.1574 329.9616 14.16683571201301
0 DMSP 5D-3 F18 DEB
1 36099U 09057E   13291.79292003  .00001920  00000-0  98250-3 0   862
2 36099 098.8396 338.2924 0011125 103.8443 320.4787 14.16686247201454
0 DMSP 5D-3 F18 DEB
1 36099U 09057E   13293.06268243  .00001955  00000-0  99976-3 0   878
2 36099 098.8397 339.5540 0010790 100.8406 315.7464 14.16690106201634
0 DMSP 5D-3 F18 DEB
1 36099U 09057E   13294.48442001  .00001926  00000-0  98561-3 0   889
2 36099 098.8398 340.9662 0010676 097.0193 006.5038 14.16696048201834
0 DMSP 5D-3 F18 DEB
1 36099U 09057E   13296.09427642  .00002021  00000-0  10327-2 0   893
2 36099 098.8399 342.5653 0010486 092.5538 296.8211 14.16702657202062
